{
  "type": "FeatureCollection",
  "features": [
    {
      "type": "Feature",
      "properties": {
        "norad_id": 36622,
        "name": "COSMOS 2251 DEB",
        "group": "cosmos-2251-debris",
        "lat": -73.98834022354613,
        "lon": 37.57089492879156,
        "alt_km": 600.0399600344235,
        "timestamp": "2025-12-20T14:38:02.366521+00:00",
        "meta_object_name": "COSMOS 2251 DEB",
        "meta_object_id": "1993-036BEL",
        "meta_epoch": "2025-12-16T03:41:49.595136",
        "meta_mean_motion": 14.76229429,
        "meta_eccentricity": 0.00688161,
        "meta_inclination": 74.0127,
        "meta_ra_of_asc_node": 138.7807,
        "meta_arg_of_pericenter": 273.5209,
        "meta_mean_anomaly": 85.8096,
        "meta_ephemeris_type": 0,
        "meta_classification_type": "U",
        "meta_norad_cat_id": 36622,
        "meta_element_set_no": 999,
        "meta_rev_at_epoch": 66800,
        "meta_bstar": 0.00051790334,
        "meta_mean_motion_dot": 3.692e-05,
        "meta_mean_motion_ddot": 0,
        "tle_line1": "1 36622U 93036BEL 25350.15404624  .00003692  00000+0  51790-3 0  9995",
        "tle_line2": "2 36622  74.0127 138.7807 0068816 273.5209  85.8096 14.76229429668005"
      },
      "geometry": {
        "type": "Point",
        "coordinates": [
          37.57089492879156,
          -73.98834022354613
        ]
      }
    },
    {
      "type": "Feature",
      "properties": {
        "norad_id": 36632,
        "name": "COSMOS 2251 DEB",
        "group": "cosmos-2251-debris",
        "lat": -34.818199428846505,
        "lon": 109.23599876749633,
        "alt_km": 776.0389570455491,
        "timestamp": "2025-12-20T14:38:02.366531+00:00",
        "meta_object_name": "COSMOS 2251 DEB",
        "meta_object_id": "1993-036BEW",
        "meta_epoch": "2025-12-13T13:36:30.735360",
        "meta_mean_motion": 14.43181896,
        "meta_eccentricity": 0.00321339,
        "meta_inclination": 74.0018,
        "meta_ra_of_asc_node": 290.8293,
        "meta_arg_of_pericenter": 38.3996,
        "meta_mean_anomaly": 321.9438,
        "meta_ephemeris_type": 0,
        "meta_classification_type": "U",
        "meta_norad_cat_id": 36632,
        "meta_element_set_no": 999,
        "meta_rev_at_epoch": 65227,
        "meta_bstar": 0.0011350112,
        "meta_mean_motion_dot": 3.814e-05,
        "meta_mean_motion_ddot": 0,
        "tle_line1": "1 36632U 93036BEW 25347.56702240  .00003814  00000+0  11350-2 0  9995",
        "tle_line2": "2 36632  74.0018 290.8293 0032133  38.3996 321.9438 14.43181896652272"
      },
      "geometry": {
        "type": "Point",
        "coordinates": [
          109.23599876749633,
          -34.818199428846505
        ]
      }
    },
    {
      "type": "Feature",
      "properties": {
        "norad_id": 37084,
        "name": "COSMOS 2251 DEB",
        "group": "cosmos-2251-debris",
        "lat": 51.74920946141179,
        "lon": 166.72501495495396,
        "alt_km": 624.749579035939,
        "timestamp": "2025-12-20T14:38:02.366541+00:00",
        "meta_object_name": "COSMOS 2251 DEB",
        "meta_object_id": "1993-036BFE",
        "meta_epoch": "2025-12-16T17:36:46.633248",
        "meta_mean_motion": 15.01047546,
        "meta_eccentricity": 0.00974837,
        "meta_inclination": 74.026,
        "meta_ra_of_asc_node": 153.3119,
        "meta_arg_of_pericenter": 232.9103,
        "meta_mean_anomaly": 126.3146,
        "meta_ephemeris_type": 0,
        "meta_classification_type": "U",
        "meta_norad_cat_id": 37084,
        "meta_element_set_no": 999,
        "meta_rev_at_epoch": 66327,
        "meta_bstar": 0.00052836057,
        "meta_mean_motion_dot": 7.439e-05,
        "meta_mean_motion_ddot": 0,
        "tle_line1": "1 37084U 93036BFE 25350.73387307  .00007439  00000+0  52836-3 0  9995",
        "tle_line2": "2 37084  74.0260 153.3119 0097483 232.9103 126.3146 15.01047546663277"
      },
      "geometry": {
        "type": "Point",
        "coordinates": [
          166.72501495495396,
          51.74920946141179
        ]
      }
    },
    {
      "type": "Feature",
      "properties": {
        "norad_id": 37085,
        "name": "COSMOS 2251 DEB",
        "group": "cosmos-2251-debris",
        "lat": -13.662113995881795,
        "lon": 22.904814624204317,
        "alt_km": 454.2839490922015,
        "timestamp": "2025-12-20T14:38:02.366551+00:00",
        "meta_object_name": "COSMOS 2251 DEB",
        "meta_object_id": "1993-036BFF",
        "meta_epoch": "2025-12-13T09:00:31.802112",
        "meta_mean_motion": 15.41681601,
        "meta_eccentricity": 0.00213151,
        "meta_inclination": 73.9479,
        "meta_ra_of_asc_node": 214.6598,
        "meta_arg_of_pericenter": 52.8263,
        "meta_mean_anomaly": 307.4887,
        "meta_ephemeris_type": 0,
        "meta_classification_type": "U",
        "meta_norad_cat_id": 37085,
        "meta_element_set_no": 999,
        "meta_rev_at_epoch": 67147,
        "meta_bstar": 0.0024657072,
        "meta_mean_motion_dot": 0.00106285,
        "meta_mean_motion_ddot": 0,
        "tle_line1": "1 37085U 93036BFF 25347.37536808  .00106285  00000+0  24657-2 0  9992",
        "tle_line2": "2 37085  73.9479 214.6598 0021315  52.8263 307.4887 15.41681601671472"
      },
      "geometry": {
        "type": "Point",
        "coordinates": [
          22.904814624204317,
          -13.662113995881795
        ]
      }
    },
    {
      "type": "Feature",
      "properties": {
        "norad_id": 37089,
        "name": "COSMOS 2251 DEB",
        "group": "cosmos-2251-debris",
        "lat": -32.028963532952524,
        "lon": 120.57814631620792,
        "alt_km": 732.3631869797873,
        "timestamp": "2025-12-20T14:38:02.366561+00:00",
        "meta_object_name": "COSMOS 2251 DEB",
        "meta_object_id": "1993-036BFK",
        "meta_epoch": "2025-12-15T02:35:52.652256",
        "meta_mean_motion": 14.5300115,
        "meta_eccentricity": 0.01350597,
        "meta_inclination": 74.0363,
        "meta_ra_of_asc_node": 141.2743,
        "meta_arg_of_pericenter": 240.987,
        "meta_mean_anomaly": 117.7703,
        "meta_ephemeris_type": 0,
        "meta_classification_type": "U",
        "meta_norad_cat_id": 37089,
        "meta_element_set_no": 999,
        "meta_rev_at_epoch": 66144,
        "meta_bstar": 0.0016025339,
        "meta_mean_motion_dot": 7.435e-05,
        "meta_mean_motion_ddot": 0,
        "tle_line1": "1 37089U 93036BFK 25349.10824829  .00007435  00000+0  16025-2 0  9999",
        "tle_line2": "2 37089  74.0363 141.2743 0135059 240.9870 117.7703 14.53001150661444"
      },
      "geometry": {
        "type": "Point",
        "coordinates": [
          120.57814631620792,
          -32.028963532952524
        ]
      }
    },
    {
      "type": "Feature",
      "properties": {
        "norad_id": 37094,
        "name": "COSMOS 2251 DEB",
        "group": "cosmos-2251-debris",
        "lat": 20.01602005380335,
        "lon": 112.6967250261033,
        "alt_km": 725.976919499296,
        "timestamp": "2025-12-20T14:38:02.366571+00:00",
        "meta_object_name": "COSMOS 2251 DEB",
        "meta_object_id": "1993-036BFQ",
        "meta_epoch": "2025-12-10T15:45:11.030688",
        "meta_mean_motion": 14.37808892,
        "meta_eccentricity": 0.0084108,
        "meta_inclination": 74.1091,
        "meta_ra_of_asc_node": 124.9809,
        "meta_arg_of_pericenter": 91.4784,
        "meta_mean_anomaly": 269.6007,
        "meta_ephemeris_type": 0,
        "meta_classification_type": "U",
        "meta_norad_cat_id": 37094,
        "meta_element_set_no": 999,
        "meta_rev_at_epoch": 84476,
        "meta_bstar": 0.0015212,
        "meta_mean_motion_dot": 4.753e-05,
        "meta_mean_motion_ddot": 0,
        "tle_line1": "1 37094U 93036BFQ 25344.65637767  .00004753  00000+0  15212-2 0  9990",
        "tle_line2": "2 37094  74.1091 124.9809 0084108  91.4784 269.6007 14.37808892844763"
      },
      "geometry": {
        "type": "Point",
        "coordinates": [
          112.6967250261033,
          20.01602005380335
        ]
      }
    },
    {
      "type": "Feature",
      "properties": {
        "norad_id": 37095,
        "name": "COSMOS 2251 DEB",
        "group": "cosmos-2251-debris",
        "lat": 52.191154455093475,
        "lon": -162.01725020182457,
        "alt_km": 1017.19060502518,
        "timestamp": "2025-12-20T14:38:02.366580+00:00",
        "meta_object_name": "COSMOS 2251 DEB",
        "meta_object_id": "1993-036BFR",
        "meta_epoch": "2025-12-19T05:51:27.165024",
        "meta_mean_motion": 14.03422827,
        "meta_eccentricity": 0.0193746,
        "meta_inclination": 73.8456,
        "meta_ra_of_asc_node": 178.4531,
        "meta_arg_of_pericenter": 235.0968,
        "meta_mean_anomaly": 123.1827,
        "meta_ephemeris_type": 0,
        "meta_classification_type": "U",
        "meta_norad_cat_id": 37095,
        "meta_element_set_no": 999,
        "meta_rev_at_epoch": 62727,
        "meta_bstar": 0.0010225,
        "meta_mean_motion_dot": 1.863e-05,
        "meta_mean_motion_ddot": 0,
        "tle_line1": "1 37095U 93036BFR 25353.24406441  .00001863  00000+0  10225-2 0  9997",
        "tle_line2": "2 37095  73.8456 178.4531 0193746 235.0968 123.1827 14.03422827627272"
      },
      "geometry": {
        "type": "Point",
        "coordinates": [
          -162.01725020182457,
          52.191154455093475
        ]
      }
    }
  ]
}